NORAD_CAT_ID,OBJECT_NAME,OBJECT_TYPE,EPOCH,MEAN_MOTION,ECCENTRICITY,INCLINATION,RA_OF_ASC_NODE,ARG_OF_PERICENTER,MEAN_ANOMALY,BSTAR,MEAN_MOTION_DOT,MEAN_MOTION_DDOT,TLE_LINE0,TLE_LINE1,TLE_LINE2,SEMIMAJOR_AXIS,PERIOD,APOGEE,PERIGEE,DECAYED
56804.0,STARLINK-6069,PAYLOAD,2023-08-06 01:51:28,15.69915219,0.00036,70.0001,225.4712,261.5647,98.5141,-8.2066e-06,-1.199e-05,0.0,0 STARLINK-6069,1 56804U 23078AP  23218.07741166 -.00001199  00000-0 -82066-5 0  9990,2 56804  70.0001 225.4712 0003600 261.5647  98.5141 15.69915219 10799,6737.277,91.725,361.567,356.716,0.0
56804.0,STARLINK-6069,PAYLOAD,2023-08-06 09:30:14,15.69903547,0.0002804,70.0011,224.5771,243.9077,116.1831,-4.9326e-05,-6.133e-05,0.0,0 STARLINK-6069,1 56804U 23078AP  23218.39600083 -.00006133  00000-0 -49326-4 0  9991,2 56804  70.0011 224.5771 0002804 243.9077 116.1831 15.69903547 10841,6737.31,91.725,361.064,357.286,0.0
56804.0,STARLINK-6069,PAYLOAD,2023-08-07 00:47:45,15.69939638,0.0003336,70.0007,222.785,272.1007,87.9807,0.00011306,0.00013412,0.0,0 STARLINK-6069,1 56804U 23078AP  23219.03316201  .00013412  00000-0  11306-3 0  9991,2 56804  70.0007 222.7850 0003336 272.1007  87.9807 15.69939638 10941,6737.207,91.723,361.319,356.824,0.0
56804.0,STARLINK-6069,PAYLOAD,2023-08-07 09:58:15,15.69927814,0.0003227,69.9993,221.7072,262.4766,97.6064,1.5073e-05,1.6e-05,0.0,0 STARLINK-6069,1 56804U 23078AP  23219.41546212  .00001600  00000-0  15073-4 0  9992,2 56804  69.9993 221.7072 0003227 262.4766  97.6064 15.69927814 11004,6737.241,91.724,361.28,356.931,0.0
56804.0,STARLINK-6069,PAYLOAD,2023-08-08 10:26:17,15.69933971,0.0003234,69.9996,218.8419,264.7821,95.3006,8.2195e-05,9.686e-05,0.0,0 STARLINK-6069,1 56804U 23078AP  23220.43492767  .00009686  00000-0  82195-4 0  9992,2 56804  69.9996 218.8419 0003234 264.7821  95.3006 15.69933971 11163,6737.223,91.724,361.267,356.909,0.0
56804.0,STARLINK-6069,PAYLOAD,2023-08-09 09:22:34,15.69925341,0.0003148,69.999,216.1551,261.7403,98.3436,8.8503e-06,8.52e-06,0.0,0 STARLINK-6069,1 56804U 23078AP  23221.39068067  .00000852  00000-0  88503-5 0  9996,2 56804  69.9990 216.1551 0003148 261.7403  98.3436 15.69925341 11311,6737.248,91.724,361.233,356.992,0.0
56804.0,STARLINK-6069,PAYLOAD,2023-08-10 09:50:36,15.69928063,0.0003386,69.9986,213.2916,267.054,93.0268,1.3324e-05,1.39e-05,0.0,0 STARLINK-6069,1 56804U 23078AP  23222.41014641  .00001390  00000-0  13324-4 0  9995,2 56804  69.9986 213.2916 0003386 267.0540  93.0268 15.69928063 11470,6737.24,91.724,361.386,356.824,0.0
56804.0,STARLINK-6069,PAYLOAD,2023-08-10 23:36:23,15.69921365,0.0003366,69.9985,211.6778,265.6198,94.4613,8.6892e-06,8.32e-06,0.0,0 STARLINK-6069,1 56804U 23078AP  23222.98360061  .00000832  00000-0  86892-5 0  9998,2 56804  69.9985 211.6778 0003366 265.6198  94.4613 15.69921365 11565,6737.259,91.724,361.392,356.856,0.0
56804.0,STARLINK-6069,PAYLOAD,2023-08-11 08:46:53,15.69929471,0.0003444,69.9973,210.6024,261.7324,98.3481,1.3864e-05,1.455e-05,0.0,0 STARLINK-6069,1 56804U 23078AP  23223.36589587  .00001455  00000-0  13864-4 0  9997,2 56804  69.9973 210.6024 0003444 261.7324  98.3481 15.69929471 11629,6737.236,91.724,361.421,356.78,0.0
56804.0,STARLINK-6069,PAYLOAD,2023-08-12 10:46:39,15.6994747,0.0002961,69.9977,207.5569,272.948,87.1377,6.2367e-05,7.3e-05,0.0,0 STARLINK-6069,1 56804U 23078AP  23224.44907268  .00007300  00000-0  62367-4 0  9994,2 56804  69.9977 207.5569 0002961 272.9480  87.1377 15.69947470 11799,6737.184,91.723,361.044,357.054,0.0
56804.0,STARLINK-6069,PAYLOAD,2023-08-12 23:00:41,15.69921252,0.0003151,70.0,206.1247,264.4827,95.6009,5.1323e-06,4.04e-06,0.0,0 STARLINK-6069,1 56804U 23078AP  23224.95881794  .00000404  00000-0  51323-5 0  9994,2 56804  70.0000 206.1247 0003151 264.4827  95.6009 15.69921252 11875,6737.259,91.724,361.247,357.001,0.0
56804.0,STARLINK-6069,PAYLOAD,2023-08-14 01:00:28,15.69928672,0.0003243,69.9981,203.0785,269.5186,90.5638,3.1732e-07,-1.75e-06,0.0,0 STARLINK-6069,1 56804U 23078AP  23226.04200000 -.00000175  00000-0  31732-6 0  9990,2 56804  69.9981 203.0785 0003243 269.5186  90.5638 15.69928672 12044,6737.238,91.724,361.288,356.918,0.0
56804.0,STARLINK-6069,PAYLOAD,2023-08-15 07:35:31,15.69925512,0.0003899,69.998,199.4954,271.5337,88.5412,1.7626e-05,1.907e-05,0.0,0 STARLINK-6069,1 56804U 23078AP  23227.31633558  .00001907  00000-0  17626-4 0  9996,2 56804  69.9980 199.4954 0003899 271.5337  88.5412 15.69925512 12246,6737.247,91.724,361.739,356.485,0.0
56804.0,STARLINK-6069,PAYLOAD,2023-08-16 00:24:48,15.69920553,0.0003641,69.9979,197.5251,270.7149,89.363,9.2686e-06,9.02e-06,0.0,0 STARLINK-6069,1 56804U 23078AP  23228.01722247  .00000902  00000-0  92686-5 0  9992,2 56804  69.9979 197.5251 0003641 270.7149  89.3630 15.69920553 12353,6737.261,91.724,361.579,356.673,0.0
56804.0,STARLINK-6069,PAYLOAD,2023-08-16 09:35:18,15.69929835,0.0004022,69.9969,196.4508,274.7581,85.3155,1.8775e-05,2.046e-05,0.0,0 STARLINK-6069,1 56804U 23078AP  23228.39951722  .00002046  00000-0  18775-4 0  9992,2 56804  69.9969 196.4508 0004022 274.7581  85.3155 15.69929835 12410,6737.235,91.724,361.809,356.39,0.0
56804.0,STARLINK-6069,PAYLOAD,2023-08-17 06:59:50,15.69927044,0.0003171,69.9983,193.9433,268.7624,91.3208,1.3983e-05,1.469e-05,0.0,0 STARLINK-6069,1 56804U 23078AP  23229.29155287  .00001469  00000-0  13983-4 0  9998,2 56804  69.9983 193.9433 0003171 268.7624  91.3208 15.69927044 12551,6737.243,91.724,361.244,356.971,0.0
56804.0,STARLINK-6069,PAYLOAD,2023-08-18 01:20:52,15.69920801,0.0003152,69.9986,191.7938,271.1299,88.9535,3.2538e-06,1.79e-06,0.0,0 STARLINK-6069,1 56804U 23078AP  23230.05616007  .00000179  00000-0  32538-5 0  9991,2 56804  69.9986 191.7938 0003152 271.1299  88.9535 15.69920801 12677,6737.261,91.724,361.249,357.002,0.0
56804.0,STARLINK-6069,PAYLOAD,2023-08-18 15:06:37,15.6993449,0.0003349,69.9986,190.1813,272.9796,87.1016,1.4314e-05,1.509e-05,0.0,0 STARLINK-6069,1 56804U 23078AP  23230.62959872  .00001509  00000-0  14314-4 0  9993,2 56804  69.9986 190.1813 0003349 272.9796  87.1016 15.69934490 12765,6737.221,91.724,361.343,356.83,0.0
56804.0,STARLINK-6069,PAYLOAD,2023-08-19 00:17:10,15.69901166,0.0004286,69.9985,189.1074,291.876,68.198,-2.0582e-05,-2.685e-05,0.0,0 STARLINK-6069,1 56804U 23078AP  23231.01192589 -.00002685  00000-0 -20582-4 0  9993,2 56804  69.9985 189.1074 0004286 291.8760  68.1980 15.69901166 12823,6737.317,91.726,362.069,356.294,0.0
56804.0,STARLINK-6069,PAYLOAD,2023-08-19 06:24:10,15.69914969,0.0003156,69.9984,188.3909,278.5059,81.5779,-8.9046e-06,-1.283e-05,0.0,0 STARLINK-6069,1 56804U 23078AP  23231.26678263 -.00001283  00000-0 -89046-5 0  9992,2 56804  69.9984 188.3909 0003156 278.5059  81.5779 15.69914969 12862,6737.277,91.725,361.269,357.016,0.0
56804.0,STARLINK-6069,PAYLOAD,2023-08-19 20:09:55,15.69920081,0.0003551,69.9982,186.7779,280.194,79.8855,6.1821e-06,5.3e-06,0.0,0 STARLINK-6069,1 56804U 23078AP  23231.84022843  .00000530  00000-0  61821-5 0  9996,2 56804  69.9982 186.7779 0003551 280.1940  79.8855 15.69920081 12951,6737.263,91.724,361.52,356.735,0.0
56804.0,STARLINK-6069,PAYLOAD,2023-08-20 23:41:27,15.69929804,0.000277,69.9988,183.5533,276.3594,83.7286,-5.6245e-06,-8.89e-06,0.0,0 STARLINK-6069,1 56804U 23078AP  23232.98712681 -.00000889  00000-0 -56245-5 0  9991,2 56804  69.9988 183.5533 0002770 276.3594  83.7286 15.69929804 13139,6737.235,91.724,360.966,357.234,0.0
56804.0,STARLINK-6069,PAYLOAD,2023-08-21 07:20:14,15.6991053,0.0002681,69.9987,182.6584,284.7737,75.3161,2.3884e-05,2.658e-05,0.0,0 STARLINK-6069,1 56804U 23078AP  23233.30571775  .00002658  00000-0  23884-4 0  9991,2 56804  69.9987 182.6584 0002681 284.7737  75.3161 15.69910530 13187,6737.29,91.725,360.961,357.349,0.0
56804.0,STARLINK-6069,PAYLOAD,2023-08-22 00:09:29,15.69925603,0.0003221,69.999,180.6888,273.6732,86.4095,5.7617e-06,4.8e-06,0.0,0 STARLINK-6069,1 56804U 23078AP  23234.00659375  .00000480  00000-0  57617-5 0  9995,2 56804  69.9990 180.6888 0003221 273.6732  86.4095 15.69925603 13297,6737.247,91.724,361.282,356.942,0.0
56804.0,STARLINK-6069,PAYLOAD,2023-08-22 07:48:15,15.69918762,0.0003063,69.9986,179.7918,270.5591,89.5253,-1.3064e-06,-3.7e-06,0.0,0 STARLINK-6069,1 56804U 23078AP  23234.32518348 -.00000370  00000-0 -13064-5 0  9992,2 56804  69.9986 179.7918 0003063 270.5591  89.5253 15.69918762 13342,6737.266,91.724,361.195,357.068,0.0
56804.0,STARLINK-6069,PAYLOAD,2023-08-22 23:05:46,15.69927433,0.0003346,69.9981,177.9997,263.4295,96.6519,3.3701e-06,1.93e-06,0.0,0 STARLINK-6069,1 56804U 23078AP  23234.96234452  .00000193  00000-0  33701-5 0  9994,2 56804  69.9981 177.9997 0003346 263.4295  96.6519 15.69927433 13440,6737.242,91.724,361.361,356.852,0.0
56804.0,STARLINK-6069,PAYLOAD,2023-08-24 19:26:35,15.69926099,0.0003588,69.9969,172.8011,276.9017,83.1771,1.0801e-05,1.086e-05,0.0,0 STARLINK-6069,1 56804U 23078AP  23236.81013004  .00001086  00000-0  10801-4 0  9995,2 56804  69.9969 172.8011 0003588 276.9017  83.1771 15.69926099 13736,6737.245,91.724,361.528,356.693,0.0
56804.0,STARLINK-6069,PAYLOAD,2023-08-25 04:37:05,15.69927664,0.0003976,69.997,171.7274,280.686,79.3888,6.0281e-06,5.12e-06,0.0,0 STARLINK-6069,1 56804U 23078AP  23237.19242999  .00000512  00000-0  60281-5 0  9995,2 56804  69.9970 171.7274 0003976 280.6860  79.3888 15.69927664 14204,6737.241,91.724,361.785,356.427,0.0
56804.0,STARLINK-6069,PAYLOAD,2023-08-25 22:58:08,15.69915488,0.0003566,69.9969,169.5771,273.7682,86.3106,6.1649e-06,5.28e-06,0.0,0 STARLINK-6069,1 56804U 23078AP  23237.95703901  .00000528  00000-0  61649-5 0  9990,2 56804  69.9969 169.5771 0003566 273.7682  86.3106 15.69915488 13918,6737.276,91.725,361.543,356.738,0.0
56804.0,STARLINK-6069,PAYLOAD,2023-08-26 18:50:53,15.69929033,0.0003218,69.9983,167.2503,267.7042,92.3785,1.5046e-05,1.597e-05,0.0,0 STARLINK-6069,1 56804U 23078AP  23238.78534658  .00001597  00000-0  15046-4 0  9999,2 56804  69.9983 167.2503 0003218 267.7042  92.3785 15.69929033 14045,6737.237,91.724,361.27,356.934,0.0
